[{"OBJECT_NAME":"STARLINK-5387","OBJECT_ID":"2022-177Y","EPOCH":"2026-03-09T22:00:01.999584","MEAN_MOTION":15.16803473,"ECCENTRICITY":0.00020851,"INCLINATION":43.0001,"RA_OF_ASC_NODE":131.0823,"ARG_OF_PERICENTER":258.7252,"MEAN_ANOMALY":19.3331,"EPHEMERIS_TYPE":0,"CLASSIFICATION_TYPE":"U","NORAD_CAT_ID":54842,"ELEMENT_SET_NO":999,"REV_AT_EPOCH":578,"BSTAR":0.060899365,"MEAN_MOTION_DOT":0.01322592,"MEAN_MOTION_DDOT":0},{"OBJECT_NAME":"KORONAS-FOTON","OBJECT_ID":"2009-003A","EPOCH":"2026-03-09T19:53:57.402240","MEAN_MOTION":15.43324779,"ECCENTRICITY":0.00113168,"INCLINATION":82.4276,"RA_OF_ASC_NODE":275.7327,"ARG_OF_PERICENTER":149.0532,"MEAN_ANOMALY":211.1384,"EPHEMERIS_TYPE":0,"CLASSIFICATION_TYPE":"U","NORAD_CAT_ID":33504,"ELEMENT_SET_NO":999,"REV_AT_EPOCH":94576,"BSTAR":0.00025164596,"MEAN_MOTION_DOT":0.00011273,"MEAN_MOTION_DDOT":0}]
